NORAD_CAT_ID,OBJECT_NAME,OBJECT_TYPE,EPOCH,MEAN_MOTION,ECCENTRICITY,INCLINATION,RA_OF_ASC_NODE,ARG_OF_PERICENTER,MEAN_ANOMALY,BSTAR,MEAN_MOTION_DOT,MEAN_MOTION_DDOT,TLE_LINE0,TLE_LINE1,TLE_LINE2,SEMIMAJOR_AXIS,PERIOD,APOGEE,PERIGEE,DECAYED
53421.0,STARLINK-4545,PAYLOAD,2023-10-23 11:19:03,15.08841301,0.0001559,53.2176,51.7043,98.0066,262.1103,0.00013642,1.884e-05,0.0,0 STARLINK-4545,1 53421U 22097AK  23296.47156968  .00001884  00000-0  13642-3 0  9993,2 53421  53.2176  51.7043 0001559  98.0066 262.1103 15.08841301 67098,6917.876,95.437,540.82,538.663,0.0
53421.0,STARLINK-4545,PAYLOAD,2023-10-23 14:29:50,15.08839882,0.0001592,53.2172,51.1097,96.7951,263.3222,0.00019361,2.795e-05,0.0,0 STARLINK-4545,1 53421U 22097AK  23296.60405105  .00002795  00000-0  19361-3 0  9994,2 53421  53.2172  51.1097 0001592  96.7951 263.3222 15.08839882 67571,6917.881,95.438,540.847,538.644,0.0
53421.0,STARLINK-4545,PAYLOAD,2023-10-24 11:09:50,15.08840889,0.0001511,53.2193,47.2424,101.3054,258.8108,0.00028353,4.227e-05,0.0,0 STARLINK-4545,1 53421U 22097AK  23297.46517291  .00004227  00000-0  28353-3 0  9992,2 53421  53.2193  47.2424 0001511 101.3054 258.8108 15.08840889 67247,6917.878,95.437,540.788,538.697,0.0
53421.0,STARLINK-4545,PAYLOAD,2023-10-24 14:20:37,15.08843169,0.0001399,53.2176,46.6501,99.0744,261.0406,0.00026806,3.981e-05,0.0,0 STARLINK-4545,1 53421U 22097AK  23297.59765197  .00003981  00000-0  26806-3 0  9993,2 53421  53.2176  46.6501 0001399  99.0744 261.0406 15.08843169 67724,6917.871,95.437,540.704,538.768,0.0
53421.0,STARLINK-4545,PAYLOAD,2023-10-25 14:11:24,15.08840411,0.0001623,53.2196,42.1906,105.1894,254.9278,6.3325e-05,7.2e-06,0.0,0 STARLINK-4545,1 53421U 22097AK  23298.59125215  .00000720  00000-0  63325-4 0  9991,2 53421  53.2196  42.1906 0001623 105.1894 254.9278 15.08840411 67412,6917.879,95.438,540.867,538.621,0.0
53421.0,STARLINK-4545,PAYLOAD,2023-10-26 14:02:11,15.08845424,0.0001545,53.2188,37.7301,98.0505,262.0663,0.00013813,1.911e-05,0.0,0 STARLINK-4545,1 53421U 22097AK  23299.58484995  .00001911  00000-0  13813-3 0  9993,2 53421  53.2188  37.7301 0001545  98.0505 262.0663 15.08845424 68029,6917.864,95.437,540.798,538.66,0.0
53421.0,STARLINK-4545,PAYLOAD,2023-10-27 10:42:11,15.08841498,0.0001754,53.2188,33.8648,93.2287,266.8906,0.00048116,7.378e-05,0.0,0 STARLINK-4545,1 53421U 22097AK  23300.44597201  .00007378  00000-0  48116-3 0  9993,2 53421  53.2188  33.8648 0001754  93.2287 266.8906 15.08841498 68159,6917.876,95.437,540.954,538.527,0.0
53421.0,STARLINK-4545,PAYLOAD,2023-10-27 15:28:20,15.08854987,0.0001623,53.2182,32.9719,74.9861,285.1311,0.00024049,3.543e-05,0.0,0 STARLINK-4545,1 53421U 22097AK  23300.64468272  .00003543  00000-0  24049-3 0  9999,2 53421  53.2182  32.9719 0001623  74.9861 285.1311 15.08854987 67724,6917.835,95.437,540.822,538.577,0.0
53421.0,STARLINK-4545,PAYLOAD,2023-10-28 12:08:22,15.08834991,0.0001386,53.2177,29.1058,85.6359,274.4792,-0.00010909,-2.023e-05,0.0,0 STARLINK-4545,1 53421U 22097AK  23301.50581183 -.00002023  00000-0 -10909-3 0  9996,2 53421  53.2177  29.1058 0001386  85.6359 274.4792 15.08834991 67850,6917.896,95.438,540.72,538.802,0.0
53421.0,STARLINK-4545,PAYLOAD,2023-10-28 13:43:45,15.08837348,0.0001422,53.2176,28.8078,90.7411,269.3744,-4.7132e-05,-1.038e-05,0.0,0 STARLINK-4545,1 53421U 22097AK  23301.57205101 -.00001038  00000-0 -47132-4 0  9990,2 53421  53.2176  28.8078 0001422  90.7411 269.3744 15.08837348 68326,6917.888,95.438,540.737,538.77,0.0
53421.0,STARLINK-4545,PAYLOAD,2023-10-28 23:16:03,15.08844411,0.0001464,53.2177,27.0237,93.8326,266.2834,0.00017889,2.561e-05,0.0,0 STARLINK-4545,1 53421U 22097AK  23301.96948986  .00002561  00000-0  17889-3 0  9993,2 53421  53.2177  27.0237 0001464  93.8326 266.2834 15.08844411 67920,6917.867,95.437,540.745,538.719,0.0
53421.0,STARLINK-4545,PAYLOAD,2023-10-29 11:59:08,15.08862762,0.0001437,53.2176,24.6446,95.1931,264.9225,0.0009703,0.00015198,0.0,0 STARLINK-4545,1 53421U 22097AK  23302.49940576  .00015198  00000-0  97030-3 0  9995,2 53421  53.2176  24.6446 0001437  95.1931 264.9225 15.08862762 68469,6917.811,95.436,540.67,538.682,0.0
53421.0,STARLINK-4545,PAYLOAD,2023-10-29 15:09:54,15.0887411,0.0001468,53.2178,24.0496,94.4583,265.6577,0.0012515,0.00019704,0.0,0 STARLINK-4545,1 53421U 22097AK  23302.63188262  .00019704  00000-0  12515-2 0  9998,2 53421  53.2178  24.0496 0001468  94.4583 265.6577 15.08874110 68029,6917.776,95.435,540.657,538.626,0.0
53421.0,STARLINK-4545,PAYLOAD,2023-10-29 23:06:50,15.08848393,0.0001359,53.2196,22.564,102.8609,257.2535,9.3995e-05,1.209e-05,0.0,0 STARLINK-4545,1 53421U 22097AK  23302.96308507  .00001209  00000-0  93995-4 0  9994,2 53421  53.2196  22.5640 0001359 102.8609 257.2535 15.08848393 68075,6917.855,95.437,540.66,538.78,0.0
53421.0,STARLINK-4545,PAYLOAD,2023-10-30 11:49:56,15.08833664,0.0001776,53.2183,20.184,119.2868,240.8302,-0.00014474,-2.591e-05,0.0,0 STARLINK-4545,1 53421U 22097AK  23303.49301142 -.00002591  00000-0 -14474-3 0  9992,2 53421  53.2183  20.1840 0001776 119.2868 240.8302 15.08833664 68153,6917.9,95.438,540.993,538.536,0.0
53421.0,STARLINK-4545,PAYLOAD,2023-10-31 10:05:20,15.08832265,0.0001698,53.2185,16.0232,109.4899,250.6276,0.00038524,5.847e-05,0.0,0 STARLINK-4545,1 53421U 22097AK  23304.42038189  .00005847  00000-0  38524-3 0  9991,2 53421  53.2185  16.0232 0001698 109.4899 250.6276 15.08832265 68753,6917.904,95.438,540.944,538.594,0.0
53421.0,STARLINK-4545,PAYLOAD,2023-11-01 05:09:58,15.08851055,0.0001391,53.2181,12.4561,95.6098,264.5053,0.0006493,0.00010064,0.0,0 STARLINK-4545,1 53421U 22097AK  23305.21526078  .00010064  00000-0  64930-3 0  9995,2 53421  53.2181  12.4561 0001391  95.6098 264.5053 15.08851055 68419,6917.847,95.437,540.674,538.749,0.0
53421.0,STARLINK-4545,PAYLOAD,2023-11-01 11:31:30,15.08861248,0.00015,53.2184,11.2682,96.1508,263.9655,0.00081072,0.00012646,0.0,0 STARLINK-4545,1 53421U 22097AK  23305.48021717  .00012646  00000-0  81072-3 0  9998,2 53421  53.2184  11.2682 0001500  96.1508 263.9655 15.08861248 68918,6917.815,95.436,540.718,538.643,0.0
53421.0,STARLINK-4545,PAYLOAD,2023-11-01 21:03:49,15.08852465,0.0001617,53.2181,9.4798,84.0335,276.0841,0.00042163,6.431e-05,0.0,0 STARLINK-4545,1 53421U 22097AK  23305.87765613  .00006431  00000-0  42163-3 0  9994,2 53421  53.2181   9.4798 0001617  84.0335 276.0841 15.08852465 68514,6917.842,95.437,540.826,538.589,0.0
53421.0,STARLINK-4545,PAYLOAD,2023-11-02 11:22:17,15.08850609,0.0001672,53.2186,6.8075,101.1048,259.0132,0.00019154,2.762e-05,0.0,0 STARLINK-4545,1 53421U 22097AK  23306.47381450  .00002762  00000-0  19154-3 0  9991,2 53421  53.2186   6.8075 0001672 101.1048 259.0132 15.08850609 69064,6917.848,95.437,540.87,538.556,0.0
53421.0,STARLINK-4545,PAYLOAD,2023-11-02 20:54:36,15.088479,0.0001471,53.2177,5.0209,87.7233,272.3928,0.00012107,1.64e-05,0.0,0 STARLINK-4545,1 53421U 22097AK  23306.87125380  .00001640  00000-0  12107-3 0  9998,2 53421  53.2177   5.0209 0001471  87.7233 272.3928 15.08847900 68662,6917.856,95.437,540.739,538.704,0.0
53421.0,STARLINK-4545,PAYLOAD,2023-11-03 03:16:09,15.08837033,0.0001947,53.2167,3.8307,78.2948,281.8262,-0.00013893,-2.498e-05,0.0,0 STARLINK-4545,1 53421U 22097AK  23307.13621807 -.00002498  00000-0 -13893-3 0  9990,2 53421  53.2167   3.8307 0001947  78.2948 281.8262 15.08837033 68709,6917.889,95.438,541.101,538.408,0.0
53421.0,STARLINK-4545,PAYLOAD,2023-11-03 11:13:05,15.08841881,0.000172,53.2191,2.3458,81.8918,278.2269,-2.7951e-05,-7.33e-06,0.0,0 STARLINK-4545,1 53421U 22097AK  23307.46742268 -.00000733  00000-0 -27951-4 0  9992,2 53421  53.2191   2.3458 0001720  81.8918 278.2269 15.08841881 69213,6917.875,95.437,540.93,538.55,0.0
53421.0,STARLINK-4545,PAYLOAD,2023-11-03 20:45:24,15.08842754,0.0001723,53.2194,0.561,86.4528,273.6661,-4.0683e-05,-9.36e-06,0.0,0 STARLINK-4545,1 53421U 22097AK  23307.86486196 -.00000936  00000-0 -40683-4 0  9993,2 53421  53.2194   0.5610 0001723  86.4528 273.6661 15.08842754 69278,6917.872,95.437,540.929,538.545,0.0
53421.0,STARLINK-4545,PAYLOAD,2023-11-04 11:03:52,15.08843342,0.0001577,53.2187,357.8838,90.3255,269.7918,7.1176e-05,8.45e-06,0.0,0 STARLINK-4545,1 53421U 22097AK  23308.46102100  .00000845  00000-0  71176-4 0  9998,2 53421  53.2187 357.8838 0001577  90.3255 269.7918 15.08843342 68902,6917.87,95.437,540.826,538.644,0.0
53421.0,STARLINK-4545,PAYLOAD,2023-11-05 09:19:15,15.08845398,0.0001585,53.2174,353.7221,94.7681,265.3492,0.00022542,3.302e-05,0.0,0 STARLINK-4545,1 53421U 22097AK  23309.38837925  .00003302  00000-0  22542-3 0  9993,2 53421  53.2174 353.7221 0001585  94.7681 265.3492 15.08845398 69508,6917.864,95.437,540.825,538.632,0.0
53421.0,STARLINK-4545,PAYLOAD,2023-11-05 20:26:57,15.08857082,8.69e-05,53.2171,351.6391,73.9623,286.1464,0.00030662,4.598e-05,0.0,0 STARLINK-4545,1 53421U 22097AK  23309.85205190  .00004598  00000-0  30662-3 0  9998,2 53421  53.2171 351.6391 0000869  73.9623 286.1464 15.08857082 69579,6917.828,95.436,540.294,539.092,0.0
53421.0,STARLINK-4545,PAYLOAD,2023-11-06 02:48:30,15.08848933,0.0001714,53.2179,350.4488,85.1309,274.9879,0.00020137,2.919e-05,0.0,0 STARLINK-4545,1 53421U 22097AK  23310.11701681  .00002919  00000-0  20137-3 0  9996,2 53421  53.2179 350.4488 0001714  85.1309 274.9879 15.08848933 69151,6917.853,95.437,540.904,538.532,0.0
53421.0,STARLINK-4545,PAYLOAD,2023-11-06 09:10:02,15.08865275,0.0001915,53.218,349.2601,87.069,273.0521,0.00041439,6.318e-05,0.0,0 STARLINK-4545,1 53421U 22097AK  23310.38196842  .00006318  00000-0  41439-3 0  9997,2 53421  53.2180 349.2601 0001915  87.0690 273.0521 15.08865275 69199,6917.803,95.436,540.993,538.343,0.0
53421.0,STARLINK-4545,PAYLOAD,2023-11-07 02:39:18,15.08827134,0.0001858,53.2173,345.9885,84.7031,275.4173,-0.0002624,-4.46e-05,0.0,0 STARLINK-4545,1 53421U 22097AK  23311.11062591 -.00004460  00000-0 -26240-3 0  9993,2 53421  53.2173 345.9885 0001858  84.7031 275.4173 15.08827134 69301,6917.92,95.438,541.07,538.499,0.0
